<?xml version="1.0" encoding="UTF-8"?>
<osm version="0.6">

  <node id="-1" action="create" lat="-16.1766368" lon="-68.9553225" />
  <node id="-2" action="create" lat="-16.1767802" lon="-68.9548770" />
  <node id="-3" action="create" lat="-16.1766845" lon="-68.9544810" />
  <node id="-4" action="create" lat="-16.1765408" lon="-68.9538127" />
  <node id="-5" action="create" lat="-16.1762537" lon="-68.9535900" />
  <node id="-6" action="create" lat="-16.1759427" lon="-68.9534664" />
  <node id="-7" action="create" lat="-16.1755122" lon="-68.9533922" />
  <node id="-8" action="create" lat="-16.1752251" lon="-68.9531695" />
  <node id="-9" action="create" lat="-16.1746989" lon="-68.9529964" />
  <node id="-10" action="create" lat="-16.1743400" lon="-68.9527489" />
  <node id="-11" action="create" lat="-16.1741964" lon="-68.9523035" />
  <node id="-12" action="create" lat="-16.1746029" lon="-68.9518579" />
  <node id="-13" action="create" lat="-16.1750095" lon="-68.9516350" />
  <node id="-14" action="create" lat="-16.1752964" lon="-68.9511647" />
  <node id="-15" action="create" lat="-16.1756073" lon="-68.9507686" />
  <node id="-16" action="create" lat="-16.1758942" lon="-68.9502735" />
  <node id="-17" action="create" lat="-16.1762051" lon="-68.9501991" />
  <node id="-18" action="create" lat="-16.1764922" lon="-68.9502981" />
  <node id="-19" action="create" lat="-16.1769705" lon="-68.9502484" />
  <node id="-20" action="create" lat="-16.1772815" lon="-68.9502236" />
  <node id="-21" action="create" lat="-16.1777838" lon="-68.9503720" />
  <node id="-22" action="create" lat="-16.1781905" lon="-68.9507184" />
  <node id="-23" action="create" lat="-16.1782624" lon="-68.9511392" />
  <node id="-24" action="create" lat="-16.1784059" lon="-68.9513867" />
  <node id="-25" action="create" lat="-16.1786069" lon="-68.9515747" />
  <node id="-26" action="create" lat="-16.1789896" lon="-68.9516241" />
  <node id="-27" action="create" lat="-16.1793723" lon="-68.9513765" />
  <node id="-28" action="create" lat="-16.1798745" lon="-68.9509309" />
  <node id="-29" action="create" lat="-16.1801135" lon="-68.9504110" />
  <node id="-30" action="create" lat="-16.1800895" lon="-68.9500150" />
  <node id="-31" action="create" lat="-16.1798503" lon="-68.9497180" />
  <node id="-32" action="create" lat="-16.1794436" lon="-68.9495449" />
  <node id="-33" action="create" lat="-16.1790609" lon="-68.9494460" />
  <node id="-34" action="create" lat="-16.1787738" lon="-68.9494460" />
  <node id="-35" action="create" lat="-16.1783671" lon="-68.9491244" />
  <node id="-36" action="create" lat="-16.1781040" lon="-68.9488769" />
  <node id="-37" action="create" lat="-16.1779842" lon="-68.9482582" />
  <node id="-38" action="create" lat="-16.1781516" lon="-68.9478374" />
  <node id="-39" action="create" lat="-16.1784863" lon="-68.9473670" />
  <node id="-40" action="create" lat="-16.1787732" lon="-68.9469461" />
  <node id="-41" action="create" lat="-16.1792277" lon="-68.9467728" />
  <node id="-42" action="create" lat="-16.1796342" lon="-68.9465994" />
  <node id="-43" action="create" lat="-16.1800409" lon="-68.9465993" />
  <node id="-44" action="create" lat="-16.1803757" lon="-68.9466239" />
  <node id="-45" action="create" lat="-16.1806867" lon="-68.9467476" />
  <node id="-46" action="create" lat="-16.1810694" lon="-68.9464752" />
  <node id="-47" action="create" lat="-16.1812127" lon="-68.9459554" />
  <node id="-48" action="create" lat="-16.1810691" lon="-68.9456584" />
  <node id="-49" action="create" lat="-16.1808060" lon="-68.9454852" />
  <node id="-50" action="create" lat="-16.1806146" lon="-68.9452625" />
  <node id="-51" action="create" lat="-16.1806145" lon="-68.9448170" />
  <node id="-52" action="create" lat="-16.1808535" lon="-68.9443763" />
  <node id="-53" action="create" lat="-16.1809013" lon="-68.9442031" />
  <node id="-54" action="create" lat="-16.1806620" lon="-68.9437329" />
  <node id="-55" action="create" lat="-16.1803032" lon="-68.9436835" />
  <node id="-56" action="create" lat="-16.1800401" lon="-68.9434608" />
  <node id="-57" action="create" lat="-16.1798726" lon="-68.9432875" />
  <node id="-58" action="create" lat="-16.1795137" lon="-68.9430154" />
  <node id="-59" action="create" lat="-16.1793940" lon="-68.9423966" />
  <node id="-60" action="create" lat="-16.1793939" lon="-68.9420254" />
  <node id="-61" action="create" lat="-16.1798481" lon="-68.9410847" />
  <node id="-62" action="create" lat="-16.1803981" lon="-68.9408370" />
  <node id="-63" action="create" lat="-16.1810200" lon="-68.9406635" />
  <node id="-64" action="create" lat="-16.1815222" lon="-68.9404654" />
  <node id="-65" action="create" lat="-16.1818092" lon="-68.9402920" />
  <node id="-66" action="create" lat="-16.1816656" lon="-68.9399208" />
  <node id="-67" action="create" lat="-16.1815459" lon="-68.9397971" />
  <node id="-68" action="create" lat="-16.1813306" lon="-68.9395001" />
  <node id="-69" action="create" lat="-16.1814740" lon="-68.9389803" />
  <node id="-70" action="create" lat="-16.1817608" lon="-68.9384851" />
  <node id="-71" action="create" lat="-16.1820238" lon="-68.9381138" />
  <node id="-72" action="create" lat="-16.1824065" lon="-68.9379404" />
  <node id="-73" action="create" lat="-16.1828849" lon="-68.9379155" />
  <node id="-74" action="create" lat="-16.1832197" lon="-68.9377174" />
  <node id="-75" action="create" lat="-16.1835067" lon="-68.9376183" />
  <node id="-76" action="create" lat="-16.1836501" lon="-68.9373707" />
  <node id="-77" action="create" lat="-16.1834108" lon="-68.9368015" />
  <node id="-78" action="create" lat="-16.1832910" lon="-68.9363560" />
  <node id="-79" action="create" lat="-16.1831953" lon="-68.9360590" />
  <node id="-80" action="create" lat="-16.1831951" lon="-68.9355095" />
  <node id="-81" action="create" lat="-16.1832906" lon="-68.9348412" />
  <node id="-82" action="create" lat="-16.1835056" lon="-68.9341728" />
  <node id="-83" action="create" lat="-16.1837446" lon="-68.9335539" />
  <node id="-84" action="create" lat="-16.1841989" lon="-68.9329844" />
  <node id="-85" action="create" lat="-16.1844141" lon="-68.9326873" />
  <node id="-86" action="create" lat="-16.1844139" lon="-68.9320190" />
  <node id="-87" action="create" lat="-16.1841985" lon="-68.9315736" />
  <node id="-88" action="create" lat="-16.1840787" lon="-68.9310786" />
  <node id="-89" action="create" lat="-16.1841025" lon="-68.9305588" />
  <node id="-90" action="create" lat="-16.1843415" lon="-68.9301626" />
  <node id="-91" action="create" lat="-16.1847720" lon="-68.9299397" />
  <node id="-92" action="create" lat="-16.1851547" lon="-68.9298158" />
  <node id="-93" action="create" lat="-16.1852980" lon="-68.9293950" />
  <node id="-94" action="create" lat="-16.1852262" lon="-68.9290237" />
  <node id="-95" action="create" lat="-16.1851303" lon="-68.9283802" />
  <node id="-96" action="create" lat="-16.1852018" lon="-68.9277614" />
  <node id="-97" action="create" lat="-16.1854648" lon="-68.9272662" />
  <node id="-98" action="create" lat="-16.1854646" lon="-68.9268454" />
  <node id="-99" action="create" lat="-16.1856559" lon="-68.9265731" />
  <node id="-100" action="create" lat="-16.1860672" lon="-68.9262908" />
  <node id="-101" action="create" lat="-16.1863781" lon="-68.9260679" />
  <node id="-102" action="create" lat="-16.1863062" lon="-68.9257461" />
  <node id="-103" action="create" lat="-16.1864233" lon="-68.9248842" />
  <node id="-104" action="create" lat="-16.1893260" lon="-68.9272966" />
  <node id="-105" action="create" lat="-16.1929005" lon="-68.9302049" />
  <node id="-106" action="create" lat="-16.1977354" lon="-68.9335339" />
  <node id="-107" action="create" lat="-16.1973592" lon="-68.9339794" />
  <node id="-108" action="create" lat="-16.1971490" lon="-68.9349300" />
  <node id="-109" action="create" lat="-16.1966134" lon="-68.9355242" />
  <node id="-110" action="create" lat="-16.1960203" lon="-68.9358611" />
  <node id="-111" action="create" lat="-16.1956378" lon="-68.9364157" />
  <node id="-112" action="create" lat="-16.1954274" lon="-68.9370098" />
  <node id="-113" action="create" lat="-16.1950831" lon="-68.9374456" />
  <node id="-114" action="create" lat="-16.1946433" lon="-68.9383567" />
  <node id="-115" action="create" lat="-16.1944904" lon="-68.9388914" />
  <node id="-116" action="create" lat="-16.1946053" lon="-68.9393864" />
  <node id="-117" action="create" lat="-16.1944715" lon="-68.9399608" />
  <node id="-118" action="create" lat="-16.1943186" lon="-68.9404955" />
  <node id="-119" action="create" lat="-16.1941465" lon="-68.9410104" />
  <node id="-120" action="create" lat="-16.1940128" lon="-68.9417233" />
  <node id="-121" action="create" lat="-16.1939364" lon="-68.9423372" />
  <node id="-122" action="create" lat="-16.1942430" lon="-68.9439847" />
  <node id="-123" action="create" lat="-16.1942432" lon="-68.9446382" />
  <node id="-124" action="create" lat="-16.1943199" lon="-68.9452719" />
  <node id="-125" action="create" lat="-16.1944348" lon="-68.9457867" />
  <node id="-126" action="create" lat="-16.1945498" lon="-68.9464996" />
  <node id="-127" action="create" lat="-16.1944352" lon="-68.9473512" />
  <node id="-128" action="create" lat="-16.1943588" lon="-68.9477868" />
  <node id="-129" action="create" lat="-16.1945694" lon="-68.9484403" />
  <node id="-130" action="create" lat="-16.1944931" lon="-68.9492324" />
  <node id="-131" action="create" lat="-16.1944167" lon="-68.9498265" />
  <node id="-132" action="create" lat="-16.1944169" lon="-68.9507771" />
  <node id="-133" action="create" lat="-16.1946658" lon="-68.9512325" />
  <node id="-134" action="create" lat="-16.1945894" lon="-68.9518761" />
  <node id="-135" action="create" lat="-16.1945513" lon="-68.9527474" />
  <node id="-136" action="create" lat="-16.1947236" lon="-68.9532028" />
  <node id="-137" action="create" lat="-16.1947428" lon="-68.9535989" />
  <node id="-138" action="create" lat="-16.1950682" lon="-68.9537572" />
  <node id="-139" action="create" lat="-16.1953744" lon="-68.9539354" />
  <node id="-140" action="create" lat="-16.1955084" lon="-68.9543908" />
  <node id="-141" action="create" lat="-16.1956616" lon="-68.9549255" />
  <node id="-142" action="create" lat="-16.1958339" lon="-68.9551829" />
  <node id="-143" action="create" lat="-16.1960253" lon="-68.9554204" />
  <node id="-144" action="create" lat="-16.1960445" lon="-68.9556977" />
  <node id="-145" action="create" lat="-16.1960828" lon="-68.9561333" />
  <node id="-146" action="create" lat="-16.1960829" lon="-68.9563908" />
  <node id="-147" action="create" lat="-16.1961021" lon="-68.9566482" />
  <node id="-148" action="create" lat="-16.1963318" lon="-68.9569452" />
  <node id="-149" action="create" lat="-16.1964913" lon="-68.9592451" />
  <node id="-150" action="create" lat="-16.1921635" lon="-68.9630397" />
  <node id="-151" action="create" lat="-16.1930231" lon="-68.9647474" />
  <node id="-152" action="create" lat="-16.1926328" lon="-68.9720734" />
  <node id="-153" action="create" lat="-16.1920231" lon="-68.9735810" />
  <node id="-154" action="create" lat="-16.1925356" lon="-68.9759180" />
  <node id="-155" action="create" lat="-16.1883206" lon="-68.9746292" />
  <node id="-156" action="create" lat="-16.1866940" lon="-68.9745304" />
  <node id="-157" action="create" lat="-16.1790401" lon="-68.9757194" />
  <node id="-158" action="create" lat="-16.1738496" lon="-68.9779909" />
  <node id="-159" action="create" lat="-16.1702273" lon="-68.9798032" />
  <node id="-160" action="create" lat="-16.1688865" lon="-68.9817582" />
  <node id="-161" action="create" lat="-16.1664857" lon="-68.9833116" />
  <node id="-162" action="create" lat="-16.1643385" lon="-68.9834685" />
  <node id="-163" action="create" lat="-16.1628241" lon="-68.9851757" />
  <node id="-164" action="create" lat="-16.1618432" lon="-68.9856460" />
  <node id="-165" action="create" lat="-16.1600031" lon="-68.9852456" />
  <node id="-166" action="create" lat="-16.1591920" lon="-68.9827040" />
  <node id="-167" action="create" lat="-16.1589259" lon="-68.9758907" />
  <node id="-168" action="create" lat="-16.1572034" lon="-68.9729953" />
  <node id="-169" action="create" lat="-16.1549381" lon="-68.9687453" />
  <node id="-170" action="create" lat="-16.1555937" lon="-68.9680503" />
  <node id="-171" action="create" lat="-16.1560421" lon="-68.9676172" />
  <node id="-172" action="create" lat="-16.1565922" lon="-68.9672025" />
  <node id="-173" action="create" lat="-16.1571841" lon="-68.9670354" />
  <node id="-174" action="create" lat="-16.1575658" lon="-68.9670281" />
  <node id="-175" action="create" lat="-16.1580681" lon="-68.9669290" />
  <node id="-176" action="create" lat="-16.1584508" lon="-68.9667805" />
  <node id="-177" action="create" lat="-16.1590726" lon="-68.9663596" />
  <node id="-178" action="create" lat="-16.1595749" lon="-68.9660130" />
  <node id="-179" action="create" lat="-16.1599575" lon="-68.9656417" />
  <node id="-180" action="create" lat="-16.1603163" lon="-68.9652952" />
  <node id="-181" action="create" lat="-16.1608425" lon="-68.9650724" />
  <node id="-182" action="create" lat="-16.1613208" lon="-68.9649238" />
  <node id="-183" action="create" lat="-16.1617991" lon="-68.9646267" />
  <node id="-184" action="create" lat="-16.1621101" lon="-68.9644039" />
  <node id="-185" action="create" lat="-16.1627080" lon="-68.9642553" />
  <node id="-186" action="create" lat="-16.1633299" lon="-68.9641067" />
  <node id="-187" action="create" lat="-16.1637843" lon="-68.9639581" />
  <node id="-188" action="create" lat="-16.1640713" lon="-68.9638343" />
  <node id="-189" action="create" lat="-16.1647554" lon="-68.9636362" />
  <node id="-190" action="create" lat="-16.1654968" lon="-68.9633143" />
  <node id="-191" action="create" lat="-16.1662382" lon="-68.9627449" />
  <node id="-192" action="create" lat="-16.1668600" lon="-68.9622993" />
  <node id="-193" action="create" lat="-16.1673862" lon="-68.9618537" />
  <node id="-194" action="create" lat="-16.1678406" lon="-68.9615319" />
  <node id="-195" action="create" lat="-16.1682950" lon="-68.9612100" />
  <node id="-196" action="create" lat="-16.1689647" lon="-68.9610366" />
  <node id="-197" action="create" lat="-16.1695148" lon="-68.9609870" />
  <node id="-198" action="create" lat="-16.1703711" lon="-68.9609869" />
  <node id="-199" action="create" lat="-16.1711605" lon="-68.9612095" />
  <node id="-200" action="create" lat="-16.1716389" lon="-68.9613331" />
  <node id="-201" action="create" lat="-16.1722608" lon="-68.9612587" />
  <node id="-202" action="create" lat="-16.1726674" lon="-68.9610359" />
  <node id="-203" action="create" lat="-16.1730739" lon="-68.9607636" />
  <node id="-204" action="create" lat="-16.1735284" lon="-68.9606150" />
  <node id="-205" action="create" lat="-16.1740067" lon="-68.9604664" />
  <node id="-206" action="create" lat="-16.1744133" lon="-68.9601693" />
  <node id="-207" action="create" lat="-16.1747959" lon="-68.9595009" />
  <node id="-208" action="create" lat="-16.1750589" lon="-68.9589811" />
  <node id="-209" action="create" lat="-16.1753458" lon="-68.9583128" />
  <node id="-210" action="create" lat="-16.1757044" lon="-68.9574464" />
  <node id="-211" action="create" lat="-16.1758477" lon="-68.9566296" />
  <node id="-212" action="create" lat="-16.1760151" lon="-68.9562632" />
  <node id="-213" action="create" lat="-16.1764216" lon="-68.9557929" />

  <way id="-214" action="create">
    <nd ref="-1"/>
    <nd ref="-2"/>
    <nd ref="-3"/>
    <nd ref="-4"/>
    <nd ref="-5"/>
    <nd ref="-6"/>
    <nd ref="-7"/>
    <nd ref="-8"/>
    <nd ref="-9"/>
    <nd ref="-10"/>
    <nd ref="-11"/>
    <nd ref="-12"/>
    <nd ref="-13"/>
    <nd ref="-14"/>
    <nd ref="-15"/>
    <nd ref="-16"/>
    <nd ref="-17"/>
    <nd ref="-18"/>
    <nd ref="-19"/>
    <nd ref="-20"/>
    <nd ref="-21"/>
    <nd ref="-22"/>
    <nd ref="-23"/>
    <nd ref="-24"/>
    <nd ref="-25"/>
    <nd ref="-26"/>
    <nd ref="-27"/>
    <nd ref="-28"/>
    <nd ref="-29"/>
    <nd ref="-30"/>
    <nd ref="-31"/>
    <nd ref="-32"/>
    <nd ref="-33"/>
    <nd ref="-34"/>
    <nd ref="-35"/>
    <nd ref="-36"/>
    <nd ref="-37"/>
    <nd ref="-38"/>
    <nd ref="-39"/>
    <nd ref="-40"/>
    <nd ref="-41"/>
    <nd ref="-42"/>
    <nd ref="-43"/>
    <nd ref="-44"/>
    <nd ref="-45"/>
    <nd ref="-46"/>
    <nd ref="-47"/>
    <nd ref="-48"/>
    <nd ref="-49"/>
    <nd ref="-50"/>
    <nd ref="-51"/>
    <nd ref="-52"/>
    <nd ref="-53"/>
    <nd ref="-54"/>
    <nd ref="-55"/>
    <nd ref="-56"/>
    <nd ref="-57"/>
    <nd ref="-58"/>
    <nd ref="-59"/>
    <nd ref="-60"/>
    <nd ref="-61"/>
    <nd ref="-62"/>
    <nd ref="-63"/>
    <nd ref="-64"/>
    <nd ref="-65"/>
    <nd ref="-66"/>
    <nd ref="-67"/>
    <nd ref="-68"/>
    <nd ref="-69"/>
    <nd ref="-70"/>
    <nd ref="-71"/>
    <nd ref="-72"/>
    <nd ref="-73"/>
    <nd ref="-74"/>
    <nd ref="-75"/>
    <nd ref="-76"/>
    <nd ref="-77"/>
    <nd ref="-78"/>
    <nd ref="-79"/>
    <nd ref="-80"/>
    <nd ref="-81"/>
    <nd ref="-82"/>
    <nd ref="-83"/>
    <nd ref="-84"/>
    <nd ref="-85"/>
    <nd ref="-86"/>
    <nd ref="-87"/>
    <nd ref="-88"/>
    <nd ref="-89"/>
    <nd ref="-90"/>
    <nd ref="-91"/>
    <nd ref="-92"/>
    <nd ref="-93"/>
    <nd ref="-94"/>
    <nd ref="-95"/>
    <nd ref="-96"/>
    <nd ref="-97"/>
    <nd ref="-98"/>
    <nd ref="-99"/>
    <nd ref="-100"/>
    <nd ref="-101"/>
    <nd ref="-102"/>
    <nd ref="-103"/>
    <nd ref="-104"/>
    <nd ref="-105"/>
    <nd ref="-106"/>
    <nd ref="-107"/>
    <nd ref="-108"/>
    <nd ref="-109"/>
    <nd ref="-110"/>
    <nd ref="-111"/>
    <nd ref="-112"/>
    <nd ref="-113"/>
    <nd ref="-114"/>
    <nd ref="-115"/>
    <nd ref="-116"/>
    <nd ref="-117"/>
    <nd ref="-118"/>
    <nd ref="-119"/>
    <nd ref="-120"/>
    <nd ref="-121"/>
    <nd ref="-122"/>
    <nd ref="-123"/>
    <nd ref="-124"/>
    <nd ref="-125"/>
    <nd ref="-126"/>
    <nd ref="-127"/>
    <nd ref="-128"/>
    <nd ref="-129"/>
    <nd ref="-130"/>
    <nd ref="-131"/>
    <nd ref="-132"/>
    <nd ref="-133"/>
    <nd ref="-134"/>
    <nd ref="-135"/>
    <nd ref="-136"/>
    <nd ref="-137"/>
    <nd ref="-138"/>
    <nd ref="-139"/>
    <nd ref="-140"/>
    <nd ref="-141"/>
    <nd ref="-142"/>
    <nd ref="-143"/>
    <nd ref="-144"/>
    <nd ref="-145"/>
    <nd ref="-146"/>
    <nd ref="-147"/>
    <nd ref="-148"/>
    <nd ref="-149"/>
    <nd ref="-150"/>
    <nd ref="-151"/>
    <nd ref="-152"/>
    <nd ref="-153"/>
    <nd ref="-154"/>
    <nd ref="-155"/>
    <nd ref="-156"/>
    <nd ref="-157"/>
    <nd ref="-158"/>
    <nd ref="-159"/>
    <nd ref="-160"/>
    <nd ref="-161"/>
    <nd ref="-162"/>
    <nd ref="-163"/>
    <nd ref="-164"/>
    <nd ref="-165"/>
    <nd ref="-166"/>
    <nd ref="-167"/>
    <nd ref="-168"/>
    <nd ref="-169"/>
    <nd ref="-170"/>
    <nd ref="-171"/>
    <nd ref="-172"/>
    <nd ref="-173"/>
    <nd ref="-174"/>
    <nd ref="-175"/>
    <nd ref="-176"/>
    <nd ref="-177"/>
    <nd ref="-178"/>
    <nd ref="-179"/>
    <nd ref="-180"/>
    <nd ref="-181"/>
    <nd ref="-182"/>
    <nd ref="-183"/>
    <nd ref="-184"/>
    <nd ref="-185"/>
    <nd ref="-186"/>
    <nd ref="-187"/>
    <nd ref="-188"/>
    <nd ref="-189"/>
    <nd ref="-190"/>
    <nd ref="-191"/>
    <nd ref="-192"/>
    <nd ref="-193"/>
    <nd ref="-194"/>
    <nd ref="-195"/>
    <nd ref="-196"/>
    <nd ref="-197"/>
    <nd ref="-198"/>
    <nd ref="-199"/>
    <nd ref="-200"/>
    <nd ref="-201"/>
    <nd ref="-202"/>
    <nd ref="-203"/>
    <nd ref="-204"/>
    <nd ref="-205"/>
    <nd ref="-206"/>
    <nd ref="-207"/>
    <nd ref="-208"/>
    <nd ref="-209"/>
    <nd ref="-210"/>
    <nd ref="-211"/>
    <nd ref="-212"/>
    <nd ref="-213"/>
    <nd ref="-1"/>
  </way>

  <relation id="-215" action="create">
    <member type="way" ref="-214" role="outer"/>
    <tag k="type" v="boundary"/>
    <tag k="boundary" v="administrative"/>
    <tag k="admin_level" v="8"/>
    <tag k="name" v="Municipio Tito Yupanqui"/>
    <tag k="is_in:country" v="Bolivia"/>
    <tag k="is_in:state" v="La Paz"/>
    <tag k="is_in:province" v="Manco Kapac"/>
    <tag k="wikidata" v="Q1552084"/>
    <tag k="source" v="Instituto Nacional de Estadistica - Bolivia (humdata.org)"/>
  </relation>

</osm>
