<?xml version="1.0" encoding="utf-8" standalone="yes"?>
<gpx version="1.1" creator="GPS Visualizer https://www.gpsvisualizer.com/" xmlns="http://www.topografix.com/GPX/1/1" xmlns:xsi="http://www.w3.org/2001/XMLSchema-instance" xsi:schemaLocation="http://www.topografix.com/GPX/1/1 http://www.topografix.com/GPX/1/1/gpx.xsd http://www.garmin.com/xmlschemas/TrackPointExtension/v2 http://www.garmin.com/xmlschemas/TrackPointExtensionv2.xsd http://www.garmin.com/xmlschemas/GpxExtensions/v3 http://www.garmin.com/xmlschemas/GpxExtensionsv3.xsd" xmlns:gpxtpx="http://www.garmin.com/xmlschemas/TrackPointExtension/v2" xmlns:gpxx="http://www.garmin.com/xmlschemas/GpxExtensions/v3">
<trk>
  <name>Municipio Tito Yupanqui</name>
  <trkseg>
    <trkpt lat="-16.1766368" lon="-68.9553225"></trkpt>
    <trkpt lat="-16.1767802" lon="-68.954877"></trkpt>
    <trkpt lat="-16.1766845" lon="-68.954481"></trkpt>
    <trkpt lat="-16.1765408" lon="-68.9538127"></trkpt>
    <trkpt lat="-16.1762537" lon="-68.95359"></trkpt>
    <trkpt lat="-16.1759427" lon="-68.9534664"></trkpt>
    <trkpt lat="-16.1755122" lon="-68.9533922"></trkpt>
    <trkpt lat="-16.1752251" lon="-68.9531695"></trkpt>
    <trkpt lat="-16.1746989" lon="-68.9529964"></trkpt>
    <trkpt lat="-16.17434" lon="-68.9527489"></trkpt>
    <trkpt lat="-16.1741964" lon="-68.9523035"></trkpt>
    <trkpt lat="-16.1746029" lon="-68.9518579"></trkpt>
    <trkpt lat="-16.1750095" lon="-68.951635"></trkpt>
    <trkpt lat="-16.1752964" lon="-68.9511647"></trkpt>
    <trkpt lat="-16.1756073" lon="-68.9507686"></trkpt>
    <trkpt lat="-16.1758942" lon="-68.9502735"></trkpt>
    <trkpt lat="-16.1762051" lon="-68.9501991"></trkpt>
    <trkpt lat="-16.1764922" lon="-68.9502981"></trkpt>
    <trkpt lat="-16.1769705" lon="-68.9502484"></trkpt>
    <trkpt lat="-16.1772815" lon="-68.9502236"></trkpt>
    <trkpt lat="-16.1777838" lon="-68.950372"></trkpt>
    <trkpt lat="-16.1781905" lon="-68.9507184"></trkpt>
    <trkpt lat="-16.1782624" lon="-68.9511392"></trkpt>
    <trkpt lat="-16.1784059" lon="-68.9513867"></trkpt>
    <trkpt lat="-16.1786069" lon="-68.9515747"></trkpt>
    <trkpt lat="-16.1789896" lon="-68.9516241"></trkpt>
    <trkpt lat="-16.1793723" lon="-68.9513765"></trkpt>
    <trkpt lat="-16.1798745" lon="-68.9509309"></trkpt>
    <trkpt lat="-16.1801135" lon="-68.950411"></trkpt>
    <trkpt lat="-16.1800895" lon="-68.950015"></trkpt>
    <trkpt lat="-16.1798503" lon="-68.949718"></trkpt>
    <trkpt lat="-16.1794436" lon="-68.9495449"></trkpt>
    <trkpt lat="-16.1790609" lon="-68.949446"></trkpt>
    <trkpt lat="-16.1787738" lon="-68.949446"></trkpt>
    <trkpt lat="-16.1783671" lon="-68.9491244"></trkpt>
    <trkpt lat="-16.178104" lon="-68.9488769"></trkpt>
    <trkpt lat="-16.1779842" lon="-68.9482582"></trkpt>
    <trkpt lat="-16.1781516" lon="-68.9478374"></trkpt>
    <trkpt lat="-16.1784863" lon="-68.947367"></trkpt>
    <trkpt lat="-16.1787732" lon="-68.9469461"></trkpt>
    <trkpt lat="-16.1792277" lon="-68.9467728"></trkpt>
    <trkpt lat="-16.1796342" lon="-68.9465994"></trkpt>
    <trkpt lat="-16.1800409" lon="-68.9465993"></trkpt>
    <trkpt lat="-16.1803757" lon="-68.9466239"></trkpt>
    <trkpt lat="-16.1806867" lon="-68.9467476"></trkpt>
    <trkpt lat="-16.1810694" lon="-68.9464752"></trkpt>
    <trkpt lat="-16.1812127" lon="-68.9459554"></trkpt>
    <trkpt lat="-16.1810691" lon="-68.9456584"></trkpt>
    <trkpt lat="-16.180806" lon="-68.9454852"></trkpt>
    <trkpt lat="-16.1806146" lon="-68.9452625"></trkpt>
    <trkpt lat="-16.1806145" lon="-68.944817"></trkpt>
    <trkpt lat="-16.1808535" lon="-68.9443763"></trkpt>
    <trkpt lat="-16.1809013" lon="-68.9442031"></trkpt>
    <trkpt lat="-16.180662" lon="-68.9437329"></trkpt>
    <trkpt lat="-16.1803032" lon="-68.9436835"></trkpt>
    <trkpt lat="-16.1800401" lon="-68.9434608"></trkpt>
    <trkpt lat="-16.1798726" lon="-68.9432875"></trkpt>
    <trkpt lat="-16.1795137" lon="-68.9430154"></trkpt>
    <trkpt lat="-16.179394" lon="-68.9423966"></trkpt>
    <trkpt lat="-16.1793939" lon="-68.9420254"></trkpt>
    <trkpt lat="-16.1798481" lon="-68.9410847"></trkpt>
    <trkpt lat="-16.1803981" lon="-68.940837"></trkpt>
    <trkpt lat="-16.18102" lon="-68.9406635"></trkpt>
    <trkpt lat="-16.1815222" lon="-68.9404654"></trkpt>
    <trkpt lat="-16.1818092" lon="-68.940292"></trkpt>
    <trkpt lat="-16.1816656" lon="-68.9399208"></trkpt>
    <trkpt lat="-16.1815459" lon="-68.9397971"></trkpt>
    <trkpt lat="-16.1813306" lon="-68.9395001"></trkpt>
    <trkpt lat="-16.181474" lon="-68.9389803"></trkpt>
    <trkpt lat="-16.1817608" lon="-68.9384851"></trkpt>
    <trkpt lat="-16.1820238" lon="-68.9381138"></trkpt>
    <trkpt lat="-16.1824065" lon="-68.9379404"></trkpt>
    <trkpt lat="-16.1828849" lon="-68.9379155"></trkpt>
    <trkpt lat="-16.1832197" lon="-68.9377174"></trkpt>
    <trkpt lat="-16.1835067" lon="-68.9376183"></trkpt>
    <trkpt lat="-16.1836501" lon="-68.9373707"></trkpt>
    <trkpt lat="-16.1834108" lon="-68.9368015"></trkpt>
    <trkpt lat="-16.183291" lon="-68.936356"></trkpt>
    <trkpt lat="-16.1831953" lon="-68.936059"></trkpt>
    <trkpt lat="-16.1831951" lon="-68.9355095"></trkpt>
    <trkpt lat="-16.1832906" lon="-68.9348412"></trkpt>
    <trkpt lat="-16.1835056" lon="-68.9341728"></trkpt>
    <trkpt lat="-16.1837446" lon="-68.9335539"></trkpt>
    <trkpt lat="-16.1841989" lon="-68.9329844"></trkpt>
    <trkpt lat="-16.1844141" lon="-68.9326873"></trkpt>
    <trkpt lat="-16.1844139" lon="-68.932019"></trkpt>
    <trkpt lat="-16.1841985" lon="-68.9315736"></trkpt>
    <trkpt lat="-16.1840787" lon="-68.9310786"></trkpt>
    <trkpt lat="-16.1841025" lon="-68.9305588"></trkpt>
    <trkpt lat="-16.1843415" lon="-68.9301626"></trkpt>
    <trkpt lat="-16.184772" lon="-68.9299397"></trkpt>
    <trkpt lat="-16.1851547" lon="-68.9298158"></trkpt>
    <trkpt lat="-16.185298" lon="-68.929395"></trkpt>
    <trkpt lat="-16.1852262" lon="-68.9290237"></trkpt>
    <trkpt lat="-16.1851303" lon="-68.9283802"></trkpt>
    <trkpt lat="-16.1852018" lon="-68.9277614"></trkpt>
    <trkpt lat="-16.1854648" lon="-68.9272662"></trkpt>
    <trkpt lat="-16.1854646" lon="-68.9268454"></trkpt>
    <trkpt lat="-16.1856559" lon="-68.9265731"></trkpt>
    <trkpt lat="-16.1860672" lon="-68.9262908"></trkpt>
    <trkpt lat="-16.1863781" lon="-68.9260679"></trkpt>
    <trkpt lat="-16.1863062" lon="-68.9257461"></trkpt>
    <trkpt lat="-16.1864233" lon="-68.9248842"></trkpt>
    <trkpt lat="-16.189326" lon="-68.9272966"></trkpt>
    <trkpt lat="-16.1929005" lon="-68.9302049"></trkpt>
    <trkpt lat="-16.1977354" lon="-68.9335339"></trkpt>
    <trkpt lat="-16.1973592" lon="-68.9339794"></trkpt>
    <trkpt lat="-16.197149" lon="-68.93493"></trkpt>
    <trkpt lat="-16.1966134" lon="-68.9355242"></trkpt>
    <trkpt lat="-16.1960203" lon="-68.9358611"></trkpt>
    <trkpt lat="-16.1956378" lon="-68.9364157"></trkpt>
    <trkpt lat="-16.1954274" lon="-68.9370098"></trkpt>
    <trkpt lat="-16.1950831" lon="-68.9374456"></trkpt>
    <trkpt lat="-16.1946433" lon="-68.9383567"></trkpt>
    <trkpt lat="-16.1944904" lon="-68.9388914"></trkpt>
    <trkpt lat="-16.1946053" lon="-68.9393864"></trkpt>
    <trkpt lat="-16.1944715" lon="-68.9399608"></trkpt>
    <trkpt lat="-16.1943186" lon="-68.9404955"></trkpt>
    <trkpt lat="-16.1941465" lon="-68.9410104"></trkpt>
    <trkpt lat="-16.1940128" lon="-68.9417233"></trkpt>
    <trkpt lat="-16.1939364" lon="-68.9423372"></trkpt>
    <trkpt lat="-16.194243" lon="-68.9439847"></trkpt>
    <trkpt lat="-16.1942432" lon="-68.9446382"></trkpt>
    <trkpt lat="-16.1943199" lon="-68.9452719"></trkpt>
    <trkpt lat="-16.1944348" lon="-68.9457867"></trkpt>
    <trkpt lat="-16.1945498" lon="-68.9464996"></trkpt>
    <trkpt lat="-16.1944352" lon="-68.9473512"></trkpt>
    <trkpt lat="-16.1943588" lon="-68.9477868"></trkpt>
    <trkpt lat="-16.1945694" lon="-68.9484403"></trkpt>
    <trkpt lat="-16.1944931" lon="-68.9492324"></trkpt>
    <trkpt lat="-16.1944167" lon="-68.9498265"></trkpt>
    <trkpt lat="-16.1944169" lon="-68.9507771"></trkpt>
    <trkpt lat="-16.1946658" lon="-68.9512325"></trkpt>
    <trkpt lat="-16.1945894" lon="-68.9518761"></trkpt>
    <trkpt lat="-16.1945513" lon="-68.9527474"></trkpt>
    <trkpt lat="-16.1947236" lon="-68.9532028"></trkpt>
    <trkpt lat="-16.1947428" lon="-68.9535989"></trkpt>
    <trkpt lat="-16.1950682" lon="-68.9537572"></trkpt>
    <trkpt lat="-16.1953744" lon="-68.9539354"></trkpt>
    <trkpt lat="-16.1955084" lon="-68.9543908"></trkpt>
    <trkpt lat="-16.1956616" lon="-68.9549255"></trkpt>
    <trkpt lat="-16.1958339" lon="-68.9551829"></trkpt>
    <trkpt lat="-16.1960253" lon="-68.9554204"></trkpt>
    <trkpt lat="-16.1960445" lon="-68.9556977"></trkpt>
    <trkpt lat="-16.1960828" lon="-68.9561333"></trkpt>
    <trkpt lat="-16.1960829" lon="-68.9563908"></trkpt>
    <trkpt lat="-16.1961021" lon="-68.9566482"></trkpt>
    <trkpt lat="-16.1963318" lon="-68.9569452"></trkpt>
    <trkpt lat="-16.1964913" lon="-68.9592451"></trkpt>
    <trkpt lat="-16.1921635" lon="-68.9630397"></trkpt>
    <trkpt lat="-16.1930231" lon="-68.9647474"></trkpt>
    <trkpt lat="-16.1926328" lon="-68.9720734"></trkpt>
    <trkpt lat="-16.1920231" lon="-68.973581"></trkpt>
    <trkpt lat="-16.1925356" lon="-68.975918"></trkpt>
    <trkpt lat="-16.1883206" lon="-68.9746292"></trkpt>
    <trkpt lat="-16.186694" lon="-68.9745304"></trkpt>
    <trkpt lat="-16.1790401" lon="-68.9757194"></trkpt>
    <trkpt lat="-16.1738496" lon="-68.9779909"></trkpt>
    <trkpt lat="-16.1702273" lon="-68.9798032"></trkpt>
    <trkpt lat="-16.1688865" lon="-68.9817582"></trkpt>
    <trkpt lat="-16.1664857" lon="-68.9833116"></trkpt>
    <trkpt lat="-16.1643385" lon="-68.9834685"></trkpt>
    <trkpt lat="-16.1628241" lon="-68.9851757"></trkpt>
    <trkpt lat="-16.1618432" lon="-68.985646"></trkpt>
    <trkpt lat="-16.1600031" lon="-68.9852456"></trkpt>
    <trkpt lat="-16.159192" lon="-68.982704"></trkpt>
    <trkpt lat="-16.1589259" lon="-68.9758907"></trkpt>
    <trkpt lat="-16.1572034" lon="-68.9729953"></trkpt>
    <trkpt lat="-16.1549381" lon="-68.9687453"></trkpt>
    <trkpt lat="-16.1555937" lon="-68.9680503"></trkpt>
    <trkpt lat="-16.1560421" lon="-68.9676172"></trkpt>
    <trkpt lat="-16.1565922" lon="-68.9672025"></trkpt>
    <trkpt lat="-16.1571841" lon="-68.9670354"></trkpt>
    <trkpt lat="-16.1575658" lon="-68.9670281"></trkpt>
    <trkpt lat="-16.1580681" lon="-68.966929"></trkpt>
    <trkpt lat="-16.1584508" lon="-68.9667805"></trkpt>
    <trkpt lat="-16.1590726" lon="-68.9663596"></trkpt>
    <trkpt lat="-16.1595749" lon="-68.966013"></trkpt>
    <trkpt lat="-16.1599575" lon="-68.9656417"></trkpt>
    <trkpt lat="-16.1603163" lon="-68.9652952"></trkpt>
    <trkpt lat="-16.1608425" lon="-68.9650724"></trkpt>
    <trkpt lat="-16.1613208" lon="-68.9649238"></trkpt>
    <trkpt lat="-16.1617991" lon="-68.9646267"></trkpt>
    <trkpt lat="-16.1621101" lon="-68.9644039"></trkpt>
    <trkpt lat="-16.162708" lon="-68.9642553"></trkpt>
    <trkpt lat="-16.1633299" lon="-68.9641067"></trkpt>
    <trkpt lat="-16.1637843" lon="-68.9639581"></trkpt>
    <trkpt lat="-16.1640713" lon="-68.9638343"></trkpt>
    <trkpt lat="-16.1647554" lon="-68.9636362"></trkpt>
    <trkpt lat="-16.1654968" lon="-68.9633143"></trkpt>
    <trkpt lat="-16.1662382" lon="-68.9627449"></trkpt>
    <trkpt lat="-16.16686" lon="-68.9622993"></trkpt>
    <trkpt lat="-16.1673862" lon="-68.9618537"></trkpt>
    <trkpt lat="-16.1678406" lon="-68.9615319"></trkpt>
    <trkpt lat="-16.168295" lon="-68.96121"></trkpt>
    <trkpt lat="-16.1689647" lon="-68.9610366"></trkpt>
    <trkpt lat="-16.1695148" lon="-68.960987"></trkpt>
    <trkpt lat="-16.1703711" lon="-68.9609869"></trkpt>
    <trkpt lat="-16.1711605" lon="-68.9612095"></trkpt>
    <trkpt lat="-16.1716389" lon="-68.9613331"></trkpt>
    <trkpt lat="-16.1722608" lon="-68.9612587"></trkpt>
    <trkpt lat="-16.1726674" lon="-68.9610359"></trkpt>
    <trkpt lat="-16.1730739" lon="-68.9607636"></trkpt>
    <trkpt lat="-16.1735284" lon="-68.960615"></trkpt>
    <trkpt lat="-16.1740067" lon="-68.9604664"></trkpt>
    <trkpt lat="-16.1744133" lon="-68.9601693"></trkpt>
    <trkpt lat="-16.1747959" lon="-68.9595009"></trkpt>
    <trkpt lat="-16.1750589" lon="-68.9589811"></trkpt>
    <trkpt lat="-16.1753458" lon="-68.9583128"></trkpt>
    <trkpt lat="-16.1757044" lon="-68.9574464"></trkpt>
    <trkpt lat="-16.1758477" lon="-68.9566296"></trkpt>
    <trkpt lat="-16.1760151" lon="-68.9562632"></trkpt>
    <trkpt lat="-16.1764216" lon="-68.9557929"></trkpt>
    <trkpt lat="-16.1766368" lon="-68.9553225"></trkpt>
  </trkseg>
</trk>
</gpx>
